NORAD_CAT_ID,OBJECT_NAME,OBJECT_TYPE,EPOCH,MEAN_MOTION,ECCENTRICITY,INCLINATION,RA_OF_ASC_NODE,ARG_OF_PERICENTER,MEAN_ANOMALY,BSTAR,MEAN_MOTION_DOT,MEAN_MOTION_DDOT,TLE_LINE0,TLE_LINE1,TLE_LINE2,SEMIMAJOR_AXIS,PERIOD,APOGEE,PERIGEE,DECAYED
49757.0,STARLINK-3197,PAYLOAD,2024-02-29 20:08:02,15.08842612,0.0001434,53.2171,215.9582,93.6877,266.4279,8.5123e-05,1.067e-05,0.0,0 STARLINK-3197,1 49757U 21115AK  24060.83892184  .00001067  00000-0  85123-4 0  9994,2 49757  53.2171 215.9582 0001434  93.6877 266.4279 15.08842612125244,6917.872,95.437,540.729,538.745,0.0
49757.0,STARLINK-3197,PAYLOAD,2024-03-01 13:37:17,15.0883706,0.0001314,53.217,212.6871,100.0396,260.0745,7.9856e-06,-1.61e-06,0.0,0 STARLINK-3197,1 49757U 21115AK  24061.56756865 -.00000161  00000-0  79856-5 0  9992,2 49757  53.2170 212.6871 0001314 100.0396 260.0745 15.08837060124242,6917.889,95.438,540.663,538.845,0.0
49757.0,STARLINK-3197,PAYLOAD,2024-03-01 16:48:03,15.08841418,0.0001298,53.2169,212.0924,92.6022,267.5119,4.6057e-05,4.45e-06,0.0,0 STARLINK-3197,1 49757U 21115AK  24061.70004530  .00000445  00000-0  46057-4 0  9993,2 49757  53.2169 212.0924 0001298  92.6022 267.5119 15.08841418125370,6917.876,95.437,540.639,538.843,0.0
49757.0,STARLINK-3197,PAYLOAD,2024-03-02 13:28:05,15.08834831,0.000124,53.2168,208.2274,91.9072,268.2062,4.8787e-06,-2.1e-06,0.0,0 STARLINK-3197,1 49757U 21115AK  24062.56117253 -.00000210  00000-0  48787-5 0  9999,2 49757  53.2168 208.2274 0001240  91.9072 268.2062 15.08834831124395,6917.896,95.438,540.619,538.903,0.0
49757.0,STARLINK-3197,PAYLOAD,2024-03-02 16:38:51,15.08839883,0.0001245,53.2171,207.6343,92.6447,267.4688,2.3039e-06,-2.51e-06,0.0,0 STARLINK-3197,1 49757U 21115AK  24062.69365003 -.00000251  00000-0  23039-5 0  9999,2 49757  53.2171 207.6343 0001245  92.6447 267.4688 15.08839883125521,6917.881,95.438,540.607,538.884,0.0
49757.0,STARLINK-3197,PAYLOAD,2024-03-03 14:54:15,15.08835761,0.0001245,53.2179,203.4723,97.1114,263.002,5.818e-05,6.38e-06,0.0,0 STARLINK-3197,1 49757U 21115AK  24063.62101394  .00000638  00000-0  58180-4 0  9996,2 49757  53.2179 203.4723 0001245  97.1114 263.0020 15.08835761124551,6917.893,95.438,540.62,538.897,0.0
49757.0,STARLINK-3197,PAYLOAD,2024-03-03 18:05:01,15.08840778,0.0001248,53.2181,202.8749,90.8393,269.2742,7.1663e-05,8.53e-06,0.0,0 STARLINK-3197,1 49757U 21115AK  24063.75348942  .00000853  00000-0  71663-4 0  9992,2 49757  53.2181 202.8749 0001248  90.8393 269.2742 15.08840778124572,6917.878,95.438,540.606,538.88,0.0
49757.0,STARLINK-3197,PAYLOAD,2024-03-04 14:45:01,15.08849344,0.0001137,53.2171,199.0088,79.5843,280.5277,0.00013505,1.863e-05,0.0,0 STARLINK-3197,1 49757U 21115AK  24064.61460263  .00001863  00000-0  13505-3 0  9991,2 49757  53.2171 199.0088 0001137  79.5843 280.5277 15.08849344124707,6917.852,95.437,540.503,538.93,0.0
49757.0,STARLINK-3197,PAYLOAD,2024-03-05 14:35:49,15.08834116,0.0001221,53.2161,194.5486,82.3567,277.7564,-0.00011431,-2.106e-05,0.0,0 STARLINK-3197,1 49757U 21115AK  24065.60821312 -.00002106  00000-0 -11431-3 0  9996,2 49757  53.2161 194.5486 0001221  82.3567 277.7564 15.08834116124851,6917.898,95.438,540.608,538.919,0.0
49757.0,STARLINK-3197,PAYLOAD,2024-03-05 17:46:35,15.08837153,0.0001247,53.2167,193.9538,80.7722,279.3411,-6.1094e-05,-1.26e-05,0.0,0 STARLINK-3197,1 49757U 21115AK  24065.74069218 -.00001260  00000-0 -61094-4 0  9991,2 49757  53.2167 193.9538 0001247  80.7722 279.3411 15.08837153125989,6917.889,95.438,540.617,538.891,0.0
49757.0,STARLINK-3197,PAYLOAD,2024-03-06 14:26:36,15.08843473,0.0001297,53.216,190.0908,87.509,272.605,-6.205e-06,-3.87e-06,0.0,0 STARLINK-3197,1 49757U 21115AK  24066.60181046 -.00000387  00000-0 -62050-5 0  9994,2 49757  53.2160 190.0908 0001297  87.5090 272.6050 15.08843473125009,6917.87,95.437,540.632,538.838,0.0
49757.0,STARLINK-3197,PAYLOAD,2024-03-07 01:34:18,15.08846478,0.0001125,53.2158,188.0072,91.2023,268.9098,4.6412e-05,4.51e-06,0.0,0 STARLINK-3197,1 49757U 21115AK  24067.06548866  .00000451  00000-0  46412-4 0  9995,2 49757  53.2158 188.0072 0001125  91.2023 268.9098 15.08846478126181,6917.861,95.437,540.504,538.947,0.0
49757.0,STARLINK-3197,PAYLOAD,2024-03-07 14:17:23,15.08835848,0.0001366,53.2174,185.6265,97.4305,262.6843,0.00021397,3.119e-05,0.0,0 STARLINK-3197,1 49757U 21115AK  24067.59541539  .00003119  00000-0  21397-3 0  9991,2 49757  53.2174 185.6265 0001366  97.4305 262.6843 15.08835848125158,6917.893,95.438,540.703,538.813,0.0
49757.0,STARLINK-3197,PAYLOAD,2024-03-08 14:08:10,15.08848893,0.0001351,53.2173,181.1643,113.5219,246.5915,2.3763e-05,9e-07,0.0,0 STARLINK-3197,1 49757U 21115AK  24068.58901204  .00000090  00000-0  23763-4 0  9995,2 49757  53.2173 181.1643 0001351 113.5219 246.5915 15.08848893125308,6917.853,95.437,540.653,538.784,0.0
49757.0,STARLINK-3197,PAYLOAD,2024-03-09 13:58:57,15.08839758,0.0001314,53.2175,176.7099,87.882,272.2322,0.00018621,2.677e-05,0.0,0 STARLINK-3197,1 49757U 21115AK  24069.58261566  .00002677  00000-0  18621-3 0  9995,2 49757  53.2175 176.7099 0001314  87.8820 272.2322 15.08839758126562,6917.881,95.438,540.655,538.837,0.0
49757.0,STARLINK-3197,PAYLOAD,2024-03-09 23:31:18,15.08818288,0.0001377,53.2163,174.9216,87.0714,273.0436,-8.7652e-05,-1.682e-05,0.0,0 STARLINK-3197,1 49757U 21115AK  24069.98007990 -.00001682  00000-0 -87652-4 0  9996,2 49757  53.2163 174.9216 0001377  87.0714 273.0436 15.08818288126620,6917.947,95.439,540.764,538.859,0.0
49757.0,STARLINK-3197,PAYLOAD,2024-03-10 13:49:46,15.0883764,0.0001468,53.2173,172.2484,101.9733,258.1424,9.3659e-05,1.203e-05,0.0,0 STARLINK-3197,1 49757U 21115AK  24070.57623094  .00001203  00000-0  93659-4 0  9993,2 49757  53.2173 172.2484 0001468 101.9733 258.1424 15.08837640126711,6917.888,95.438,540.768,538.737,0.0
49757.0,STARLINK-3197,PAYLOAD,2024-03-11 04:08:13,15.08847851,0.0001326,53.2167,169.5686,81.8542,278.26,0.00014181,1.97e-05,0.0,0 STARLINK-3197,1 49757U 21115AK  24071.17238415  .00001970  00000-0  14181-3 0  9992,2 49757  53.2167 169.5686 0001326  81.8542 278.2600 15.08847851126808,6917.856,95.437,540.639,538.804,0.0
49757.0,STARLINK-3197,PAYLOAD,2024-03-11 13:40:32,15.08861697,0.0001467,53.2166,167.7891,96.8761,263.2398,0.00042063,6.417e-05,0.0,0 STARLINK-3197,1 49757U 21115AK  24071.56981885  .00006417  00000-0  42063-3 0  9992,2 49757  53.2166 167.7891 0001467  96.8761 263.2398 15.08861697125755,6917.814,95.436,540.694,538.664,0.0
49757.0,STARLINK-3197,PAYLOAD,2024-03-11 16:51:17,15.08871203,0.0001384,53.2163,167.19,69.5748,290.5393,0.00052342,8.059e-05,0.0,0 STARLINK-3197,1 49757U 21115AK  24071.70229117  .00008059  00000-0  52342-3 0  9996,2 49757  53.2163 167.1900 0001384  69.5748 290.5393 15.08871203126884,6917.785,95.436,540.607,538.693,0.0
49757.0,STARLINK-3197,PAYLOAD,2024-03-12 11:55:56,15.08847777,0.0001417,53.2161,163.6237,87.8851,272.2304,-1.9167e-05,-5.93e-06,0.0,0 STARLINK-3197,1 49757U 21115AK  24072.49718299 -.00000593  00000-0 -19167-4 0  9993,2 49757  53.2161 163.6237 0001417  87.8851 272.2304 15.08847777127004,6917.857,95.437,540.702,538.741,0.0
49757.0,STARLINK-3197,PAYLOAD,2024-03-13 11:46:43,15.08844389,0.0001322,53.215,159.1643,85.6074,274.5069,-0.00014232,-2.552e-05,0.0,0 STARLINK-3197,1 49757U 21115AK  24073.49078049 -.00002552  00000-0 -14232-3 0  9990,2 49757  53.2150 159.1643 0001322  85.6074 274.5069 15.08844389126043,6917.867,95.437,540.647,538.817,0.0
49757.0,STARLINK-3197,PAYLOAD,2024-03-14 05:15:58,15.0884243,0.0001587,53.2167,155.8922,96.1953,263.922,0.0001504,2.107e-05,0.0,0 STARLINK-3197,1 49757U 21115AK  24074.21942177  .00002107  00000-0  15040-3 0  9995,2 49757  53.2167 155.8922 0001587  96.1953 263.9220 15.08842430127261,6917.873,95.437,540.836,538.64,0.0
49757.0,STARLINK-3197,PAYLOAD,2024-03-14 11:37:30,15.08846873,0.0001614,53.2166,154.7032,96.0354,264.0822,0.00022776,3.339e-05,0.0,0 STARLINK-3197,1 49757U 21115AK  24074.48437934  .00003339  00000-0  22776-3 0  9996,2 49757  53.2166 154.7032 0001614  96.0354 264.0822 15.08846873126191,6917.859,95.437,540.841,538.608,0.0
49757.0,STARLINK-3197,PAYLOAD,2024-03-15 11:28:17,15.0884217,0.0001603,53.2161,150.2429,94.8123,265.3052,0.00010686,1.413e-05,0.0,0 STARLINK-3197,1 49757U 21115AK  24075.47798137  .00001413  00000-0  10686-3 0  9999,2 49757  53.2161 150.2429 0001603  94.8123 265.3052 15.08842170127450,6917.874,95.437,540.848,538.63,0.0
49757.0,STARLINK-3197,PAYLOAD,2024-03-15 14:39:03,15.08845558,0.0001537,53.2155,149.6471,94.811,265.3057,0.00014421,2.008e-05,0.0,0 STARLINK-3197,1 49757U 21115AK  24075.61045917  .00002008  00000-0  14421-3 0  9998,2 49757  53.2155 149.6471 0001537  94.8110 265.3057 15.08845558126361,6917.863,95.437,540.792,538.665,0.0
49757.0,STARLINK-3197,PAYLOAD,2024-03-16 11:19:04,15.08845812,0.0001603,53.2171,145.7787,110.2086,249.9079,-4.352e-06,-3.57e-06,0.0,0 STARLINK-3197,1 49757U 21115AK  24076.47157910 -.00000357  00000-0 -43520-5 0  9991,2 49757  53.2171 145.7787 0001603 110.2086 249.9079 15.08845812126494,6917.863,95.437,540.837,538.619,0.0
49757.0,STARLINK-3197,PAYLOAD,2024-03-17 04:48:19,15.08833878,0.0001742,53.2169,142.5072,117.3048,242.8121,9.0885e-05,1.158e-05,0.0,0 STARLINK-3197,1 49757U 21115AK  24077.20022371  .00001158  00000-0  90885-4 0  9998,2 49757  53.2169 142.5072 0001742 117.3048 242.8121 15.08833878127718,6917.899,95.438,540.969,538.559,0.0
49757.0,STARLINK-3197,PAYLOAD,2024-03-17 11:09:51,15.0884067,0.0001569,53.2181,141.3245,108.1589,251.9574,5.7939e-05,6.34e-06,0.0,0 STARLINK-3197,1 49757U 21115AK  24077.46518207  .00000634  00000-0  57939-4 0  9995,2 49757  53.2181 141.3245 0001569 108.1589 251.9574 15.08840670126648,6917.878,95.438,540.829,538.658,0.0
49757.0,STARLINK-3197,PAYLOAD,2024-03-18 11:00:39,15.08830628,0.000154,53.2176,136.8621,98.3341,261.7826,-9.058e-06,-4.32e-06,0.0,0 STARLINK-3197,1 49757U 21115AK  24078.45879345 -.00000432  00000-0 -90580-5 0  9996,2 49757  53.2176 136.8621 0001540  98.3341 261.7826 15.08830628127905,6917.909,95.438,540.839,538.709,0.0
